{
  "type": "FeatureCollection",
  "features": [
    {
      "type": "Feature",
      "properties": {
        "norad_id": 37836,
        "name": "EUTELSAT 16A",
        "group": "eutelsat",
        "lat": -0.04920144517359699,
        "lon": -40.950987070594806,
        "alt_km": 35771.94433660427,
        "timestamp": "2025-12-10T14:53:36.793541+00:00",
        "meta_object_name": "EUTELSAT 16A",
        "meta_object_id": "2011-057A",
        "meta_epoch": "2025-12-10T06:13:38.752320",
        "meta_mean_motion": 1.00271332,
        "meta_eccentricity": 0.00059716,
        "meta_inclination": 0.0586,
        "meta_ra_of_asc_node": 3.873,
        "meta_arg_of_pericenter": 259.4477,
        "meta_mean_anomaly": 285.3275,
        "meta_ephemeris_type": 0,
        "meta_classification_type": "U",
        "meta_norad_cat_id": 37836,
        "meta_element_set_no": 999,
        "meta_rev_at_epoch": 543,
        "meta_bstar": 0,
        "meta_mean_motion_dot": 1.07e-06,
        "meta_mean_motion_ddot": 0,
        "tle_line1": "1 37836U 11057A   25344.25947630  .00000107  00000+0  00000+0 0  9991",
        "tle_line2": "2 37836   0.0586   3.8730 0005971 259.4477 285.3275  1.00271332  5432"
      },
      "geometry": {
        "type": "Point",
        "coordinates": [
          -40.950987070594806,
          -0.04920144517359699
        ]
      }
    },
    {
      "type": "Feature",
      "properties": {
        "norad_id": 38992,
        "name": "EUTELSAT 21B",
        "group": "eutelsat",
        "lat": -0.045041547540962505,
        "lon": -35.38008422987469,
        "alt_km": 35778.43663022672,
        "timestamp": "2025-12-10T14:53:36.793552+00:00",
        "meta_object_name": "EUTELSAT 21B",
        "meta_object_id": "2012-062B",
        "meta_epoch": "2025-12-10T06:13:38.752320",
        "meta_mean_motion": 1.00271386,
        "meta_eccentricity": 0.00032902,
        "meta_inclination": 0.0664,
        "meta_ra_of_asc_node": 0.5578,
        "meta_arg_of_pericenter": 267.7897,
        "meta_mean_anomaly": 285.8968,
        "meta_ephemeris_type": 0,
        "meta_classification_type": "U",
        "meta_norad_cat_id": 38992,
        "meta_element_set_no": 999,
        "meta_rev_at_epoch": 4793,
        "meta_bstar": 0,
        "meta_mean_motion_dot": 1.33e-06,
        "meta_mean_motion_ddot": 0,
        "tle_line1": "1 38992U 12062B   25344.25947630  .00000133  00000+0  00000+0 0  9991",
        "tle_line2": "2 38992   0.0664   0.5578 0003290 267.7897 285.8968  1.00271386 47931"
      },
      "geometry": {
        "type": "Point",
        "coordinates": [
          -35.38008422987469,
          -0.045041547540962505
        ]
      }
    },
    {
      "type": "Feature",
      "properties": {
        "norad_id": 39020,
        "name": "EUTELSAT 70B",
        "group": "eutelsat",
        "lat": 0.04600597396402485,
        "lon": 13.551568945207622,
        "alt_km": 35797.75022706921,
        "timestamp": "2025-12-10T14:53:36.793562+00:00",
        "meta_object_name": "EUTELSAT 70B",
        "meta_object_id": "2012-069A",
        "meta_epoch": "2025-12-10T00:45:38.640672",
        "meta_mean_motion": 1.00271694,
        "meta_eccentricity": 0.00043475,
        "meta_inclination": 0.0642,
        "meta_ra_of_asc_node": 339.7514,
        "meta_arg_of_pericenter": 264.3105,
        "meta_mean_anomaly": 276.8818,
        "meta_ephemeris_type": 0,
        "meta_classification_type": "U",
        "meta_norad_cat_id": 39020,
        "meta_element_set_no": 999,
        "meta_rev_at_epoch": 4761,
        "meta_bstar": 0,
        "meta_mean_motion_dot": -4.1e-07,
        "meta_mean_motion_ddot": 0,
        "tle_line1": "1 39020U 12069A   25344.03169723 -.00000041  00000+0  00000+0 0  9995",
        "tle_line2": "2 39020   0.0642 339.7514 0004347 264.3105 276.8818  1.00271694 47617"
      },
      "geometry": {
        "type": "Point",
        "coordinates": [
          13.551568945207622,
          0.04600597396402485
        ]
      }
    },
    {
      "type": "Feature",
      "properties": {
        "norad_id": 39122,
        "name": "EUTELSAT 117 WEST A",
        "group": "eutelsat",
        "lat": -0.008429594424259867,
        "lon": -173.84559091347825,
        "alt_km": 35783.03887077072,
        "timestamp": "2025-12-10T14:53:36.793573+00:00",
        "meta_object_name": "EUTELSAT 117 WEST A",
        "meta_object_id": "2013-012A",
        "meta_epoch": "2025-12-10T04:39:38.509344",
        "meta_mean_motion": 1.00270942,
        "meta_eccentricity": 0.00030361,
        "meta_inclination": 0.0128,
        "meta_ra_of_asc_node": 356.7069,
        "meta_arg_of_pericenter": 264.7569,
        "meta_mean_anomaly": 130.8158,
        "meta_ephemeris_type": 0,
        "meta_classification_type": "U",
        "meta_norad_cat_id": 39122,
        "meta_element_set_no": 999,
        "meta_rev_at_epoch": 4653,
        "meta_bstar": 0,
        "meta_mean_motion_dot": -1e-07,
        "meta_mean_motion_ddot": 0,
        "tle_line1": "1 39122U 13012A   25344.19419571 -.00000010  00000+0  00000+0 0  9999",
        "tle_line2": "2 39122   0.0128 356.7069 0003036 264.7569 130.8158  1.00270942 46536"
      },
      "geometry": {
        "type": "Point",
        "coordinates": [
          -173.84559091347825,
          -0.008429594424259867
        ]
      }
    },
    {
      "type": "Feature",
      "properties": {
        "norad_id": 39163,
        "name": "EUTELSAT 7B",
        "group": "eutelsat",
        "lat": -0.07549569502097718,
        "lon": -50.02232075623571,
        "alt_km": 35766.76739894508,
        "timestamp": "2025-12-10T14:53:36.793584+00:00",
        "meta_object_name": "EUTELSAT 7B",
        "meta_object_id": "2013-022A",
        "meta_epoch": "2025-12-10T04:08:38.649120",
        "meta_mean_motion": 1.00271972,
        "meta_eccentricity": 0.00045893,
        "meta_inclination": 0.0713,
        "meta_ra_of_asc_node": 16.1451,
        "meta_arg_of_pericenter": 299.181,
        "meta_mean_anomaly": 192.9753,
        "meta_ephemeris_type": 0,
        "meta_classification_type": "U",
        "meta_norad_cat_id": 39163,
        "meta_element_set_no": 999,
        "meta_rev_at_epoch": 4606,
        "meta_bstar": 0,
        "meta_mean_motion_dot": 5.1e-07,
        "meta_mean_motion_ddot": 0,
        "tle_line1": "1 39163U 13022A   25344.17266955  .00000051  00000+0  00000+0 0  9993",
        "tle_line2": "2 39163   0.0713  16.1451 0004589 299.1810 192.9753  1.00271972 46060"
      },
      "geometry": {
        "type": "Point",
        "coordinates": [
          -50.02232075623571,
          -0.07549569502097718
        ]
      }
    },
    {
      "type": "Feature",
      "properties": {
        "norad_id": 39612,
        "name": "EXPRESS-AT1",
        "group": "eutelsat",
        "lat": 0.016683503519013893,
        "lon": -1.0124258702843458,
        "alt_km": 35788.57396016565,
        "timestamp": "2025-12-10T14:53:36.793605+00:00",
        "meta_object_name": "EXPRESS-AT1",
        "meta_object_id": "2014-010A",
        "meta_epoch": "2025-12-10T00:53:38.582304",
        "meta_mean_motion": 1.0027054,
        "meta_eccentricity": 5.761e-05,
        "meta_inclination": 0.0121,
        "meta_ra_of_asc_node": 290.9998,
        "meta_arg_of_pericenter": 272.8151,
        "meta_mean_anomaly": 304.608,
        "meta_ephemeris_type": 0,
        "meta_classification_type": "U",
        "meta_norad_cat_id": 39612,
        "meta_element_set_no": 999,
        "meta_rev_at_epoch": 4292,
        "meta_bstar": 0,
        "meta_mean_motion_dot": 8.2e-07,
        "meta_mean_motion_ddot": 0,
        "tle_line1": "1 39612U 14010A   25344.03725211  .00000082  00000+0  00000+0 0  9994",
        "tle_line2": "2 39612   0.0121 290.9998 0000576 272.8151 304.6080  1.00270540 42924"
      },
      "geometry": {
        "type": "Point",
        "coordinates": [
          -1.0124258702843458,
          0.016683503519013893
        ]
      }
    },
    {
      "type": "Feature",
      "properties": {
        "norad_id": 39613,
        "name": "EXPRESS-AT2",
        "group": "eutelsat",
        "lat": 0.03439105793491073,
        "lon": 82.86255171198962,
        "alt_km": 35792.25189015844,
        "timestamp": "2025-12-10T14:53:36.793624+00:00",
        "meta_object_name": "EXPRESS-AT2",
        "meta_object_id": "2014-010B",
        "meta_epoch": "2025-12-10T06:12:28.999872",
        "meta_mean_motion": 1.00269735,
        "meta_eccentricity": 0.00015431,
        "meta_inclination": 0.0166,
        "meta_ra_of_asc_node": 337.7142,
        "meta_arg_of_pericenter": 316.8076,
        "meta_mean_anomaly": 17.6984,
        "meta_ephemeris_type": 0,
        "meta_classification_type": "U",
        "meta_norad_cat_id": 39613,
        "meta_element_set_no": 999,
        "meta_rev_at_epoch": 4260,
        "meta_bstar": 0,
        "meta_mean_motion_dot": 0,
        "meta_mean_motion_ddot": 0,
        "tle_line1": "1 39613U 14010B   25344.25866898  .00000000  00000+0  00000+0 0  9996",
        "tle_line2": "2 39613   0.0166 337.7142 0001543 316.8076  17.6984  1.00269735 42608"
      },
      "geometry": {
        "type": "Point",
        "coordinates": [
          82.86255171198962,
          0.03439105793491073
        ]
      }
    }
  ]
}